{
  "type": "FeatureCollection",
  "name": "ARFCamps",
  "features": [
    {
      "type": "Feature",
      "id": 1,
      "properties": {
        "OBJECTID": 1,
        "Camp_label": "45/68",
        "Gate": "45",
        "Street": "68",
        "Block": "35C",
        "Type": "external",
        "Transport_mode": "تقليدي",
        "Capacity": "4823",
        "Gate_Lon": 39.96945,
        "Gate_Lat": 21.347887,
        "Shape_Length": 0.0062620694296317836,
        "Shape_Area": 1.1387480000073747e-6
      },
      "geometry": {
        "type": "Polygon",
        "coordinates": [
          [
            [39.970158, 21.348626],
            [39.970069, 21.34868],
            [39.970098, 21.348722],
            [39.970058, 21.348746],
            [39.969951, 21.348589],
            [39.970017, 21.34855],
            [39.96995, 21.348451],
            [39.969868, 21.3485],
            [39.969608, 21.348119],
            [39.969691, 21.34807],
            [39.969636, 21.34799],
            [39.969554, 21.348039],
            [39.969328, 21.347706],
            [39.969413, 21.347655],
            [39.969346, 21.347558],
            [39.969261, 21.347609],
            [39.969157, 21.347456],
            [39.969223, 21.347417],
            [39.969145, 21.347303],
            [39.969873, 21.346868],
            [39.969931, 21.346834],
            [39.969938, 21.34684],
            [39.970587, 21.34735],
            [39.970669, 21.347459],
            [39.970395, 21.347622],
            [39.970144, 21.347773],
            [39.969884, 21.347928],
            [39.969939, 21.348008],
            [39.969795, 21.348093],
            [39.970158, 21.348626]
          ]
        ]
      }
    }
  ]
}
