{
  "type": "FeatureCollection",
  "features": [
    {
      "type": "Feature",
      "id": 1,
      "geometry": {
        "type": "Point",
        "coordinates": [
          39.910715665300138,
          21.402659963241266
        ]
      },
      "properties": {
        "OBJECTID": 1,
        "MINASM_Code": "MINASM1",
        "MINASM_Name": "طريق الملك فهد (68 ) - الدائري الرابع"
      }
    },
    {
      "type": "Feature",
      "id": 2,
      "geometry": {
        "type": "Point",
        "coordinates": [
          39.903795301693421,
          21.429922897023072
        ]
      },
      "properties": {
        "OBJECTID": 2,
        "MINASM_Code": "MINASM2",
        "MINASM_Name": "طريق الملك عبدالله (25) - المعيصم"
      }
    },
    {
      "type": "Feature",
      "id": 3,
      "geometry": {
        "type": "Point",
        "coordinates": [
          39.899169100529775,
          21.433543979030944
        ]
      },
      "properties": {
        "OBJECTID": 3,
        "MINASM_Code": "MINASM3",
        "MINASM_Name": "طريق الملك خالد - المعيصم"
      }
    },
    {
      "type": "Feature",
      "id": 4,
      "geometry": {
        "type": "Point",
        "coordinates": [
          39.863683095552148,
          21.430263071516066
        ]
      },
      "properties": {
        "OBJECTID": 4,
        "MINASM_Code": "MINASM4",
        "MINASM_Name": "طريق الملك فهد (68 ) - الششة"
      }
    },
    {
      "type": "Feature",
      "id": 5,
      "geometry": {
        "type": "Point",
        "coordinates": [
          39.888475000278532,
          21.4046669996704
        ]
      },
      "properties": {
        "OBJECTID": 5,
        "MINASM_Code": "MINASM5",
        "MINASM_Name": "طريق الملك عبدالله (25) - العزيزية"
      }
    },
    {
      "type": "Feature",
      "id": 6,
      "geometry": {
        "type": "Point",
        "coordinates": [
          39.907763315017199,
          21.396539420995168
        ]
      },
      "properties": {
        "OBJECTID": 6,
        "MINASM_Code": "MINASM6",
        "MINASM_Name": "طريق الجوهرة (56) - الدائري الرابع"
      }
    },
    {
      "type": "Feature",
      "id": 7,
      "geometry": {
        "type": "Point",
        "coordinates": [
          39.909244813376766,
          21.407815148613931
        ]
      },
      "properties": {
        "OBJECTID": 7,
        "MINASM_Code": "MINASM7",
        "MINASM_Name": "مسار رقم 1"
      }
    },
    {
      "type": "Feature",
      "id": 8,
      "geometry": {
        "type": "Point",
        "coordinates": [
          39.910982013565672,
          21.403032252830695
        ]
      },
      "properties": {
        "OBJECTID": 8,
        "MINASM_Code": "MINASM8",
        "MINASM_Name": "مسار رقم 2"
      }
    },
    {
      "type": "Feature",
      "id": 11,
      "geometry": {
        "type": "Point",
        "coordinates": [
          39.911069915853751,
          21.403486333338208
        ]
      },
      "properties": {
        "OBJECTID": 11,
        "MINASM_Code": "MINASM9",
        "MINASM_Name": "مسار رقم 3"
      }
    },
    {
      "type": "Feature",
      "id": 12,
      "geometry": {
        "type": "Point",
        "coordinates": [
          39.876713541948966,
          21.407436862843355
        ]
      },
      "properties": {
        "OBJECTID": 12,
        "MINASM_Code": "MINASM10",
        "MINASM_Name": "طريق الملك خالد - العزيزية"
      }
    },
    {
      "type": "Feature",
      "id": 13,
      "geometry": {
        "type": "Point",
        "coordinates": [
          39.89969216266234,
          21.392808584930982
        ]
      },
      "properties": {
        "OBJECTID": 13,
        "MINASM_Code": "MINASM11",
        "MINASM_Name": "طريق دقم الوبر"
      }
    },
    {
      "type": "Feature",
      "id": 14,
      "geometry": {
        "type": "Point",
        "coordinates": [
          39.908857141432236,
          21.398466339165747
        ]
      },
      "properties": {
        "OBJECTID": 14,
        "MINASM_Code": "MINASM12",
        "MINASM_Name": "مسار رقم 1 - مزدلفة"
      }
    }
  ]
}