{"type":"FeatureCollection","features":[{"type":"Feature","properties":{},"geometry":{"type":"MultiPolygon","coordinates":[[[[39.863784,21.422388],[39.874492,21.413001],[39.892216,21.401694],[39.900713,21.391265],[39.908137,21.403412],[39.90449,21.414599],[39.903717,21.420153],[39.902859,21.426025],[39.898696,21.427903],[39.887881,21.426944],[39.879556,21.424507],[39.874921,21.427264],[39.869599,21.429002],[39.863784,21.422388]]],[[[39.954529,21.345745],[39.969893,21.336871],[39.9862,21.33799],[39.993324,21.342547],[39.993324,21.354618],[39.986629,21.358615],[39.984999,21.36445],[39.988089,21.377798],[39.983797,21.378358],[39.979935,21.375401],[39.972811,21.363411],[39.96397,21.354298],[39.954529,21.345745]]],[[[39.91065,21.408063],[39.91065,21.407845],[39.911037,21.407845],[39.911037,21.408063],[39.91065,21.408063]]],[[[39.956613,21.340171],[39.963228,21.33532],[39.965304,21.337319],[39.958584,21.34158],[39.956613,21.340171]]],[[[39.976443,21.335473],[39.977176,21.332547],[39.985291,21.333669],[39.984924,21.3364],[39.976443,21.335473]]],[[[39.995578,21.342133],[39.999304,21.342216],[39.998461,21.35151],[39.99509,21.351097],[39.995578,21.342133]]],[[[39.976993,21.380803],[39.979069,21.378947],[39.982641,21.38061],[39.985465,21.380262],[39.985756,21.382969],[39.980523,21.383162],[39.976993,21.380803]]],[[[39.968271,21.36931],[39.969519,21.368649],[39.970694,21.370154],[39.969372,21.371225],[39.968271,21.36931]]],[[[39.962856,21.362924],[39.963866,21.362454],[39.964992,21.363557],[39.96406,21.364353],[39.962856,21.362924]]],[[[39.961415,21.36082],[39.961865,21.360608],[39.962263,21.361013],[39.96157,21.36122],[39.961415,21.36082]]],[[[39.957268,21.356823],[39.958077,21.356043],[39.959724,21.357469],[39.958337,21.358411],[39.957268,21.356823]]],[[[39.953974,21.353702],[39.954928,21.352652],[39.955997,21.353675],[39.955188,21.354751],[39.953974,21.353702]]],[[[39.951868,21.350775],[39.952603,21.350345],[39.95295,21.350762],[39.952156,21.351434],[39.951868,21.350775]]],[[[39.949716,21.346974],[39.95081,21.345055],[39.952356,21.345374],[39.951926,21.347294],[39.949716,21.346974]]]]}}]}