   {
      "type": "Feature",
      "geometry": {
        "type": "MultiPolygon",
        "coordinates": [
          [
            [
              [
                39.8637838,
                21.422388
              ],
              [
                39.8695993423462,
                21.42900155645281
              ],
              [
                39.874920845031745,
                21.42726377984974
              ],
              [
                39.87955570220948,
                21.42450726419084
              ],
              [
                39.887881278991706,
                21.426944186498446
              ],
              [
                39.89869594573975,
                21.427902964453516
              ],
              [
                39.90285873413087,
                21.426025351716536
              ],
              [
                39.90371704101563,
                21.42015266240872
              ],
              [
                39.90448951721192,
                21.414599358016652
              ],
              [
                39.90813732147217,
                21.403412204695066
              ],
              [
                39.90071296691895,
                21.391265183053612
              ],
              [
                39.89221572875977,
                21.40169410172477
              ],
              [
                39.87449169158936,
                21.413001245693067
              ],
              [
                39.8637838,
                21.422388
              ]
            ]
          ],
          [
            [
              [
                39.95452880859376,
                21.345744841957377
              ],
              [
                39.96397018432617,
                21.354298470014285
              ],
              [
                39.972810745239265,
                21.363411131920497
              ],
              [
                39.97993469238282,
                21.37540061282847
              ],
              [
                39.983797073364265,
                21.378357867164834
              ],
              [
                39.98808860778809,
                21.377798391197185
              ],
              [
                39.98499870300294,
                21.364450259115753
              ],
              [
                39.98662948608399,
                21.358615064726997
              ],
              [
                39.99332427978516,
                21.354618222131514
              ],
              [
                39.99332427978516,
                21.342547095826642
              ],
              [
                39.98620033264161,
                21.337990187100303
              ],
              [
                39.96989250183106,
                21.336870924701298
              ],
              [
                39.95452880859376,
                21.345744841957377
              ]
            ]
          ],
          [
            [
              [
                39.91065033897215,
                21.40806341412258
              ],
              [
                39.91103723291934,
                21.40806341412258
              ],
              [
                39.91103723291934,
                21.407844865651285
              ],
              [
                39.91065033897215,
                21.407844865651285
              ],
              [
                39.91065033897215,
                21.40806341412258
              ]
            ]
          ]
        ]
      },
      "properties": {}
    }