{
  "type": "FeatureCollection",
  "name": "MINARF",
  "features": [
    {
      "type": "Feature",
      "id": 1,
      "properties": {
        "OBJECTID": 1,
        "Camp_label": "0/68",
        "Transport_mode": "تقليدي",
        "Street_Camp_MIN": " شارع 68",
        "Street_MIN_Exit": "طريق الملك فهد 68",
        "ASMARF": "الدائري الأوسط 83",
        "Street_Camp_ARF": "طريق 50",
        "Shape_Length": 0.22041441547636337
      },
      "geometry": {
        "type": "LineString",
        "coordinates": [
          [39.885815, 21.418222],
          [39.885788, 21.418169],
          [39.88603, 21.418073],
          [39.886269, 21.417971],
          [39.886506, 21.417864],
          [39.886929, 21.417617],
          [39.886852, 21.417688],
          [39.886728, 21.417795],
          [39.8866, 21.417897],
          [39.886467, 21.417994],
          [39.88633, 21.418086],
          [39.886199, 21.418174],
          [39.886073, 21.418269],
          [39.885951, 21.418368],
          [39.885835, 21.418473],
          [39.885723, 21.418582],
          [39.885618, 21.418696],
          [39.885517, 21.418815],
          [39.885476, 21.418871],
          [39.885439, 21.41893],
          [39.885407, 21.418992],
          [39.885379, 21.419056],
          [39.885357, 21.419121],
          [39.885341, 21.419188],
          [39.885315, 21.419296],
          [39.885281, 21.419403],
          [39.885241, 21.419508],
          [39.885194, 21.419611],
          [39.88514, 21.41971],
          [39.885079, 21.419806],
          [39.885013, 21.419898],
          [39.884965, 21.419965],
          [39.884923, 21.420036],
          [39.884888, 21.420109],
          [39.884858, 21.420185],
          [39.884835, 21.420262],
          [39.884818, 21.420341],
          [39.884809, 21.420421],
          [39.884805, 21.420501],
          [39.884809, 21.420582],
          [39.88482, 21.420662],
          [39.884917, 21.420862],
          [39.891316, 21.425496],
          [39.89182, 21.425734],
          [39.892508, 21.426221],
          [39.893793, 21.427168],
          [39.894591, 21.427791],
          [39.898069, 21.432065],
          [39.898214, 21.432213],
          [39.898353, 21.432366],
          [39.898487, 21.432523],
          [39.898615, 21.432684],
          [39.898738, 21.432849],
          [39.898855, 21.433018],
          [39.898966, 21.43319],
          [39.89907, 21.433365],
          [39.899169, 21.433544],
          [39.899261, 21.433725],
          [39.899347, 21.43391],
          [39.899427, 21.434096],
          [39.8995, 21.434285],
          [39.899566, 21.434477],
          [39.89976, 21.435121],
          [39.899855, 21.43532],
          [39.899955, 21.435517],
          [39.900061, 21.435711],
          [39.900173, 21.435902],
          [39.90029, 21.43609],
          [39.900413, 21.436275],
          [39.900497, 21.436388],
          [39.900587, 21.436497],
          [39.900682, 21.436602],
          [39.900782, 21.436703],
          [39.900888, 21.436799],
          [39.900998, 21.43689],
          [39.901113, 21.436977],
          [39.901232, 21.437058],
          [39.901354, 21.437133],
          [39.901481, 21.437204],
          [39.901611, 21.437268],
          [39.901744, 21.437327],
          [39.90188, 21.437379],
          [39.901941, 21.437385],
          [39.902003, 21.437386],
          [39.902064, 21.43738],
          [39.902124, 21.437369],
          [39.902183, 21.437352],
          [39.902239, 21.43733],
          [39.902293, 21.437302],
          [39.902344, 21.43727],
          [39.902392, 21.437225],
          [39.902435, 21.437175],
          [39.902471, 21.437121],
          [39.902501, 21.437064],
          [39.902523, 21.437003],
          [39.903032, 21.435536],
          [39.90322, 21.435102],
          [39.90357, 21.434199],
          [39.904229, 21.432132],
          [39.904672, 21.430709],
          [39.905768, 21.427267],
          [39.906136, 21.426074],
          [39.906608, 21.424683],
          [39.906932, 21.423693],
          [39.907273, 21.422626],
          [39.907701, 21.421306],
          [39.907917, 21.420464],
          [39.908174, 21.419239],
          [39.90839, 21.417774],
          [39.908797, 21.41527],
          [39.909017, 21.414147],
          [39.909295, 21.412828],
          [39.910011, 21.409627],
          [39.910285, 21.408458],
          [39.910283, 21.408456],
          [39.910469, 21.407711],
          [39.911095, 21.405057],
          [39.911268, 21.404167],
          [39.911326, 21.403469],
          [39.911309, 21.402748],
          [39.911204, 21.402012],
          [39.91103, 21.401343],
          [39.910893, 21.400953],
          [39.910829, 21.400775],
          [39.910665, 21.400402],
          [39.910554, 21.400171],
          [39.910462, 21.399978],
          [39.910278, 21.39967],
          [39.910119, 21.399432],
          [39.909799, 21.398999],
          [39.909502, 21.398561],
          [39.909227, 21.398194],
          [39.908492, 21.397201],
          [39.90763, 21.396031],
          [39.90723, 21.395495],
          [39.90664, 21.39471],
          [39.905902, 21.393727],
          [39.905504, 21.393214],
          [39.905086, 21.392663],
          [39.904632, 21.392047],
          [39.904064, 21.391302],
          [39.903465, 21.390503],
          [39.902708, 21.389492],
          [39.90229, 21.388926],
          [39.901605, 21.387998],
          [39.900996, 21.387185],
          [39.899672, 21.385423],
          [39.899278, 21.384868],
          [39.89889, 21.384315],
          [39.898609, 21.383891],
          [39.898437, 21.383618],
          [39.898104, 21.383083],
          [39.897956, 21.38284],
          [39.89743, 21.381924],
          [39.896759, 21.380749],
          [39.89658, 21.380452],
          [39.896322, 21.379995],
          [39.896133, 21.379641],
          [39.895838, 21.379106],
          [39.895688, 21.378806],
          [39.895468, 21.378436],
          [39.895344, 21.378203],
          [39.895092, 21.377782],
          [39.894881, 21.377406],
          [39.894664, 21.377032],
          [39.894442, 21.376661],
          [39.894236, 21.376311],
          [39.894045, 21.37602],
          [39.89357, 21.375285],
          [39.893377, 21.375011],
          [39.893001, 21.374464],
          [39.892538, 21.373836],
          [39.890873, 21.3716],
          [39.889972, 21.370373],
          [39.889005, 21.369072],
          [39.88818, 21.367937],
          [39.887803, 21.367425],
          [39.887578, 21.367125],
          [39.887417, 21.366928],
          [39.887009, 21.366491],
          [39.886853, 21.366346],
          [39.886725, 21.366259],
          [39.886638, 21.366227],
          [39.886574, 21.366206],
          [39.886515, 21.366192],
          [39.886451, 21.366185],
          [39.886392, 21.366181],
          [39.886329, 21.366184],
          [39.886266, 21.366192],
          [39.886202, 21.366208],
          [39.886119, 21.366236],
          [39.886032, 21.366272],
          [39.885983, 21.366299],
          [39.88593, 21.36634],
          [39.885882, 21.366384],
          [39.885832, 21.366437],
          [39.885774, 21.366511],
          [39.885751, 21.366549],
          [39.885724, 21.366612],
          [39.885703, 21.366683],
          [39.88569, 21.366749],
          [39.885686, 21.366809],
          [39.885687, 21.366871],
          [39.885697, 21.366927],
          [39.885711, 21.366987],
          [39.885733, 21.367055],
          [39.885754, 21.367104],
          [39.885786, 21.367159],
          [39.885817, 21.367203],
          [39.88586, 21.367251],
          [39.885904, 21.367294],
          [39.885956, 21.367337],
          [39.886007, 21.367372],
          [39.886067, 21.367404],
          [39.886129, 21.367428],
          [39.886196, 21.367451],
          [39.886265, 21.367467],
          [39.886335, 21.367476],
          [39.886406, 21.367479],
          [39.886476, 21.367475],
          [39.886553, 21.367458],
          [39.886629, 21.367436],
          [39.886703, 21.36741],
          [39.887337, 21.367003],
          [39.887417, 21.366928],
          [39.887575, 21.366781],
          [39.888134, 21.366262],
          [39.888534, 21.365892],
          [39.889285, 21.3652],
          [39.889819, 21.36477],
          [39.889975, 21.36466],
          [39.89013, 21.364552],
          [39.890282, 21.364445],
          [39.890399, 21.364367],
          [39.890579, 21.364254],
          [39.890761, 21.364143],
          [39.890946, 21.364037],
          [39.891141, 21.363936],
          [39.891346, 21.363823],
          [39.891649, 21.36368],
          [39.891873, 21.363579],
          [39.892022, 21.363518],
          [39.892249, 21.363426],
          [39.892561, 21.363311],
          [39.892791, 21.363235],
          [39.893122, 21.363132],
          [39.893351, 21.363064],
          [39.893678, 21.362969],
          [39.894028, 21.362887],
          [39.894702, 21.362741],
          [39.895457, 21.362581],
          [39.896663, 21.362324],
          [39.897404, 21.362169],
          [39.898077, 21.362022],
          [39.898368, 21.36196],
          [39.899511, 21.361715],
          [39.900243, 21.36156],
          [39.900969, 21.361401],
          [39.901653, 21.361257],
          [39.902616, 21.361052],
          [39.903314, 21.360899],
          [39.903723, 21.360812],
          [39.904119, 21.360746],
          [39.905502, 21.360443],
          [39.905858, 21.360371],
          [39.906316, 21.360272],
          [39.906859, 21.360171],
          [39.907617, 21.360012],
          [39.907996, 21.35993],
          [39.908702, 21.359776],
          [39.909254, 21.359656],
          [39.910088, 21.35948],
          [39.91085, 21.359317],
          [39.913081, 21.358838],
          [39.915103, 21.358406],
          [39.916541, 21.358058],
          [39.919109, 21.357515],
          [39.919683, 21.357395],
          [39.920017, 21.357316],
          [39.920403, 21.357231],
          [39.920728, 21.357139],
          [39.920854, 21.357095],
          [39.921172, 21.357012],
          [39.921532, 21.356899],
          [39.921773, 21.356819],
          [39.922062, 21.356714],
          [39.922278, 21.35664],
          [39.92253, 21.356542],
          [39.922781, 21.35644],
          [39.923029, 21.356334],
          [39.923279, 21.356223],
          [39.923527, 21.35611],
          [39.923773, 21.355993],
          [39.923971, 21.355896],
          [39.92418, 21.355785],
          [39.924386, 21.355668],
          [39.924687, 21.355494],
          [39.924924, 21.355355],
          [39.925163, 21.355208],
          [39.925487, 21.354994],
          [39.925807, 21.354763],
          [39.925955, 21.354656],
          [39.926091, 21.354554],
          [39.926217, 21.35446],
          [39.926416, 21.354299],
          [39.926887, 21.353908],
          [39.92714, 21.353673],
          [39.927384, 21.353445],
          [39.927626, 21.353214],
          [39.928077, 21.352754],
          [39.928311, 21.352503],
          [39.92855, 21.352256],
          [39.929231, 21.351551],
          [39.929727, 21.351035],
          [39.930322, 21.350415],
          [39.930498, 21.350234],
          [39.93089, 21.34983],
          [39.931479, 21.349223],
          [39.932076, 21.348604],
          [39.932651, 21.348008],
          [39.933257, 21.34737],
          [39.933968, 21.346622],
          [39.934561, 21.346014],
          [39.935134, 21.345418],
          [39.935611, 21.344919],
          [39.936293, 21.344186],
          [39.936659, 21.343799],
          [39.937455, 21.343011],
          [39.9378, 21.342647],
          [39.938138, 21.342254],
          [39.938456, 21.341915],
          [39.938918, 21.341454],
          [39.939072, 21.341296],
          [39.939871, 21.340639],
          [39.940059, 21.340471],
          [39.940704, 21.339939],
          [39.941295, 21.339472],
          [39.942172, 21.338824],
          [39.942871, 21.338337],
          [39.943341, 21.338028],
          [39.943469, 21.337947],
          [39.943558, 21.337888],
          [39.94384, 21.337711],
          [39.94397, 21.337632],
          [39.944136, 21.337535],
          [39.944285, 21.337446],
          [39.94462, 21.33725],
          [39.944957, 21.33706],
          [39.944989, 21.337041],
          [39.945199, 21.336926],
          [39.945409, 21.336814],
          [39.945611, 21.336703],
          [39.94606, 21.33647],
          [39.946224, 21.336386],
          [39.946337, 21.336333],
          [39.946406, 21.3363],
          [39.946868, 21.335984],
          [39.946916, 21.335948],
          [39.946959, 21.335907],
          [39.946996, 21.335861],
          [39.947028, 21.335812],
          [39.947053, 21.33576],
          [39.947072, 21.335705],
          [39.947084, 21.335649],
          [39.947089, 21.335591],
          [39.947088, 21.335534],
          [39.947079, 21.335477],
          [39.947063, 21.335421],
          [39.94704, 21.335368],
          [39.947011, 21.335317],
          [39.946976, 21.33527],
          [39.946941, 21.335225],
          [39.9469, 21.335184],
          [39.946854, 21.335149],
          [39.946804, 21.335119],
          [39.94675, 21.335095],
          [39.946693, 21.335078],
          [39.946635, 21.335068],
          [39.946575, 21.335064],
          [39.946516, 21.335068],
          [39.946458, 21.335079],
          [39.946401, 21.335096],
          [39.946347, 21.33512],
          [39.946297, 21.33515],
          [39.946251, 21.335185],
          [39.946208, 21.33522],
          [39.946166, 21.335256],
          [39.946129, 21.335296],
          [39.946097, 21.33534],
          [39.946071, 21.335387],
          [39.946051, 21.335436],
          [39.946037, 21.335488],
          [39.946029, 21.335541],
          [39.946028, 21.335594],
          [39.946033, 21.335646],
          [39.946041, 21.335725],
          [39.946051, 21.335798],
          [39.94607, 21.335861],
          [39.946337, 21.336333],
          [39.946401, 21.336446],
          [39.946904, 21.337325],
          [39.947328, 21.338101],
          [39.947883, 21.339012],
          [39.948067, 21.339317],
          [39.948253, 21.33956],
          [39.948387, 21.339684],
          [39.948538, 21.339802],
          [39.948687, 21.339902],
          [39.948875, 21.339993],
          [39.949351, 21.34021],
          [39.949867, 21.340428],
          [39.950524, 21.340708],
          [39.951484, 21.34112],
          [39.952623, 21.341609],
          [39.953384, 21.341945],
          [39.953818, 21.342132],
          [39.954087, 21.342221],
          [39.95437, 21.342254],
          [39.955214, 21.341746],
          [39.956651, 21.340876],
          [39.957739, 21.340218],
          [39.958824, 21.339569],
          [39.959897, 21.339753],
          [39.960991, 21.339928],
          [39.962084, 21.340102],
          [39.963354, 21.340282],
          [39.964166, 21.340403],
          [39.965538, 21.340588],
          [39.969332, 21.341167],
          [39.96995, 21.341234],
          [39.971964, 21.341399],
          [39.975205, 21.341657],
          [39.97644, 21.341752],
          [39.977366, 21.341186],
          [39.977373, 21.341197]
        ]
      }
    }
  ]
}
