{
  "type": "FeatureCollection",
  "name": "MINCamps",
  "features": [
    {
      "type": "Feature",
      "id": 1,
      "properties": {
        "OBJECTID": 1,
        "Camp_label": "16/616",
        "Gate": "16",
        "Street": "616",
        "Block": "97",
        "Transport_mode": "ترددي",
        "Type": "external",
        "Capacity": 9816,
        "Gate_lat": 21.415867708000061,
        "Gate_lon": 39.898184320000041,
        "Shape_Length": 0.0049266160603699998,
        "Shape_Area": 1.1122434999979641e-6
      },
      "geometry": {
        "type": "Polygon",
        "coordinates": [
          [
            [39.898248, 21.415411],
            [39.898316, 21.415444],
            [39.898289, 21.415494],
            [39.898323, 21.41551],
            [39.898262, 21.415622],
            [39.898308, 21.415644],
            [39.898207, 21.415824],
            [39.89819, 21.415854],
            [39.898112, 21.415817],
            [39.898086, 21.415865],
            [39.898162, 21.415903],
            [39.897922, 21.416323],
            [39.897845, 21.416286],
            [39.897719, 21.416125],
            [39.89766, 21.416165],
            [39.897463, 21.415908],
            [39.897494, 21.415887],
            [39.897472, 21.415858],
            [39.897448, 21.415874],
            [39.897426, 21.415844],
            [39.897418, 21.41585],
            [39.897396, 21.41582],
            [39.896926, 21.415209],
            [39.89696, 21.415188],
            [39.896916, 21.415128],
            [39.897281, 21.414892],
            [39.89738, 21.415026],
            [39.897713, 21.41481],
            [39.898115, 21.415372],
            [39.898179, 21.415332],
            [39.898216, 21.415384],
            [39.898248, 21.415411]
          ]
        ]
      }
    }
  ]
}
