{
  "type" : "FeatureCollection",
  "features" : [{"type":"Feature","id":1,"geometry":{"type":"Polygon","coordinates":[[[39.987498000000073,21.344092000000046],[39.986472000000049,21.344700000000046],[39.98575500000004,21.343687000000045],[39.986797000000024,21.343059000000039],[39.987498000000073,21.344092000000046]]]},"properties":{"OBJECTID":1,"Name":"250-83","Street":"83","Area":"مشعر عرفات","Capacity":200,"Shape_Length":0.004898698579984144,"Shape_Area":1.4959440000278988e-06}},{"type":"Feature","id":2,"geometry":{"type":"Polygon","coordinates":[[[39.98987500000004,21.347715000000051],[39.988953000000038,21.348249000000067],[39.988274000000047,21.347234000000071],[39.989202000000034,21.346685000000036],[39.98987500000004,21.347715000000051]]]},"properties":{"OBJECTID":2,"Name":"300-83","Street":"83","Area":"مشعر عرفات","Capacity":200,"Shape_Length":0.0045952603786060028,"Shape_Area":1.3118665000159885e-06}},{"type":"Feature","id":3,"geometry":{"type":"Polygon","coordinates":[[[39.979103000000066,21.343395000000044],[39.97711600000008,21.344607000000053],[39.976826000000074,21.344097000000033],[39.978785000000073,21.342962000000057],[39.979103000000066,21.343395000000044]]]},"properties":{"OBJECTID":3,"Name":"100-52","Street":"52","Area":"مشعر عرفات","Capacity":500,"Shape_Length":0.0057154283498365311,"Shape_Area":1.2870135000006545e-06}},{"type":"Feature","id":4,"geometry":{"type":"Polygon","coordinates":[[[39.976638000000037,21.34485600000005],[39.974753000000078,21.346017000000074],[39.974332000000061,21.345303000000058],[39.976186000000041,21.34421100000003],[39.976638000000037,21.34485600000005]]]},"properties":{"OBJECTID":4,"Name":"150-52","Street":"52","Area":"مشعر عرفات","Capacity":500,"Shape_Length":0.0059820321851662972,"Shape_Area":1.762042500031988e-06}},{"type":"Feature","id":5,"geometry":{"type":"Polygon","coordinates":[[[39.972141000000079,21.347575000000063],[39.971819000000039,21.34777500000007],[39.971507000000031,21.347958000000062],[39.971447000000069,21.34787300000005],[39.971392000000037,21.347784000000047],[39.971277000000043,21.34758800000003],[39.971069000000057,21.347266000000047],[39.971704000000045,21.346894000000077],[39.972141000000079,21.347575000000063]]]},"properties":{"OBJECTID":5,"Name":"200-52","Street":"52","Area":"مشعر عرفات","Capacity":100,"Shape_Length":0.0031051108701081838,"Shape_Area":6.0262499999884127e-07}},{"type":"Feature","id":6,"geometry":{"type":"Polygon","coordinates":[[[39.996965000000046,21.341775000000041],[39.99674600000003,21.341849000000025],[39.996643000000063,21.341575000000034],[39.996400000000051,21.341118000000051],[39.99646800000005,21.341113000000064],[39.996623000000056,21.341196000000025],[39.996788000000038,21.341268000000071],[39.997016000000031,21.341403000000071],[39.997232000000054,21.341475000000059],[39.997511000000031,21.341473000000065],[39.997645000000034,21.341568000000052],[39.997687000000042,21.342116000000033],[39.997176000000024,21.342275000000029],[39.996965000000046,21.341775000000041]]]},"properties":{"OBJECTID":6,"Name":"قيادي الدائري الشرقي","Street":"91","Area":"مشعر عرفات","Capacity":90,"Shape_Length":0.0040288957644574481,"Shape_Area":6.8378249995894385e-07}},{"type":"Feature","id":7,"geometry":{"type":"Polygon","coordinates":[[[39.972724000000028,21.344842000000028],[39.971548000000041,21.345518000000027],[39.971063000000072,21.344778000000076],[39.972251000000028,21.344122000000027],[39.972724000000028,21.344842000000028]]]},"properties":{"OBJECTID":7,"Name":"150-50","Street":"50","Area":"مشعر عرفات","Capacity":100,"Shape_Length":0.0044597764914308217,"Shape_Area":1.1818739999517837e-06}},{"type":"Feature","id":8,"geometry":{"type":"Polygon","coordinates":[[[39.980544000000066,21.342548000000022],[39.979340000000036,21.342086000000052],[39.979351000000065,21.342048000000034],[39.979408000000035,21.34201900000005],[39.979512000000057,21.341958000000034],[39.979564000000039,21.341934000000037],[39.979610000000037,21.341914000000031],[39.979671000000053,21.341891000000032],[39.979724000000033,21.341871000000026],[39.979780000000062,21.341856000000064],[39.979833000000042,21.341840000000047],[39.979889000000071,21.341828000000078],[39.979986000000054,21.341823000000034],[39.980070000000069,21.341823000000034],[39.980129000000034,21.341823000000034],[39.980180000000075,21.341828000000078],[39.980251000000067,21.34183900000005],[39.980300000000057,21.341852000000074],[39.980344000000059,21.341871000000026],[39.98037000000005,21.341885000000048],[39.980448000000081,21.341942000000074],[39.980530000000044,21.342026000000033],[39.98061000000007,21.342132000000049],[39.980680000000064,21.342227000000037],[39.980715000000032,21.342272000000037],[39.980738000000031,21.34230800000006],[39.980770000000064,21.342362000000037],[39.980544000000066,21.342548000000022]]]},"properties":{"OBJECTID":8,"Name":"200-83","Street":"83","Area":"مشعر عرفات","Capacity":50,"Shape_Length":0.003324927191540171,"Shape_Area":5.6944849999174351e-07}},{"type":"Feature","id":9,"geometry":{"type":"Polygon","coordinates":[[[39.982416000000057,21.337642000000073],[39.980948000000069,21.338685000000055],[39.980488000000037,21.338155000000029],[39.981960000000072,21.337168000000077],[39.982416000000057,21.337642000000073]]]},"properties":{"OBJECTID":9,"Name":"100-50","Street":"50","Area":"مشعر عرفات","Capacity":300,"Shape_Length":0.0049325871882944638,"Shape_Area":1.202810000016853e-06}},{"type":"Feature","id":10,"geometry":{"type":"Polygon","coordinates":[[[39.989476000000025,21.333808000000033],[39.984026000000028,21.33321200000006],[39.984141000000079,21.33234600000003],[39.98500800000005,21.331916000000035],[39.985699000000068,21.331625000000031],[39.98631000000006,21.33135500000003],[39.986771000000033,21.331090000000074],[39.987172000000044,21.330658000000028],[39.987637000000063,21.329975000000047],[39.987856000000079,21.329136000000062],[39.988860000000045,21.329287000000022],[39.989588000000026,21.329410000000053],[39.990230000000054,21.32950500000004],[39.990666000000033,21.329582000000073],[39.989476000000025,21.333808000000033]]]},"properties":{"OBJECTID":10,"Name":"400-91","Street":"91","Area":"مشعر عرفات","Capacity":1200,"Shape_Length":0.018791881940373102,"Shape_Area":1.7694973999936935e-05}},{"type":"Feature","id":11,"geometry":{"type":"Polygon","coordinates":[[[39.991250000000036,21.348056000000042],[39.990775000000042,21.347416000000067],[39.992335000000026,21.34642400000007],[39.992803000000038,21.347096000000022],[39.991250000000036,21.348056000000042]]]},"properties":{"OBJECTID":11,"Name":"150-62","Street":"62","Area":"مشعر عرفات","Capacity":350,"Shape_Length":0.0052903717169397266,"Shape_Area":1.4812479999459008e-06}},{"type":"Feature","id":12,"geometry":{"type":"Polygon","coordinates":[[[39.972341000000029,21.358752000000038],[39.972226000000035,21.358757000000026],[39.972108000000048,21.358716000000072],[39.971882000000051,21.358540000000062],[39.971720000000062,21.358362000000056],[39.971670000000074,21.358270000000061],[39.971700000000055,21.358159000000057],[39.97244900000004,21.357699000000025],[39.972948000000031,21.358388000000048],[39.972341000000029,21.358752000000038]]]},"properties":{"OBJECTID":12,"Name":"225-62","Street":"62","Area":"مشعر عرفات","Capacity":400,"Shape_Length":0.0034243203611514237,"Shape_Area":7.7549199999192801e-07}},{"type":"Feature","id":13,"geometry":{"type":"Polygon","coordinates":[[[39.983130000000074,21.334584000000063],[39.980804000000035,21.334308000000078],[39.980891000000042,21.333930000000066],[39.980994000000067,21.333728000000065],[39.981299000000035,21.333513000000039],[39.983133000000066,21.333798000000058],[39.983222000000069,21.333990000000028],[39.983193000000028,21.334181000000058],[39.983130000000074,21.334584000000063]]]},"properties":{"OBJECTID":13,"Name":"300-91","Street":"91","Area":"مشعر عرفات","Capacity":300,"Shape_Length":0.0059988272939416132,"Shape_Area":1.8282275000536542e-06}},{"type":"Feature","id":14,"geometry":{"type":"Polygon","coordinates":[[[39.971251000000052,21.357814000000076],[39.971070000000054,21.357803000000047],[39.970845000000054,21.357682000000068],[39.970350000000053,21.357327000000055],[39.97004000000004,21.357091000000025],[39.969904000000042,21.356944000000055],[39.969929000000036,21.356777000000022],[39.971360000000061,21.355919000000029],[39.972367000000077,21.357303000000059],[39.971787000000063,21.357660000000067],[39.971480000000042,21.35777900000005],[39.971361000000059,21.357817000000068],[39.971251000000052,21.357814000000076]]]},"properties":{"OBJECTID":14,"Name":"100-420","Street":"510","Area":"مشعر عرفات","Capacity":600,"Shape_Length":0.0064300497896335402,"Shape_Area":2.6433445000972549e-06}},{"type":"Feature","id":15,"geometry":{"type":"Polygon","coordinates":[[[39.984974000000079,21.335592000000076],[39.984939000000054,21.335661000000073],[39.984893000000056,21.335705000000075],[39.984708000000069,21.335703000000024],[39.984619000000066,21.335738000000049],[39.984556000000055,21.335799000000065],[39.98445300000003,21.335982000000058],[39.98431400000004,21.336119000000053],[39.984154000000046,21.336212000000046],[39.983786000000066,21.33627800000005],[39.983628000000067,21.336248000000069],[39.983446000000072,21.336088000000075],[39.983429000000058,21.336041000000023],[39.983462000000031,21.335994000000028],[39.983600000000081,21.335896000000048],[39.983836000000053,21.335717000000045],[39.984067000000039,21.335575000000063],[39.984274000000028,21.33548600000006],[39.984401000000048,21.335472000000038],[39.984530000000063,21.335461000000066],[39.984616000000074,21.335470000000043],[39.984854000000041,21.335489000000052],[39.984953000000075,21.335524000000078],[39.984974000000079,21.335592000000076]]]},"properties":{"OBJECTID":15,"Name":"44-50","Street":"50","Area":"مشعر عرفات","Capacity":80,"Shape_Length":0.0037045988548036098,"Shape_Area":6.5834500000155736e-07}},{"type":"Feature","id":16,"geometry":{"type":"Polygon","coordinates":[[[39.995098000000041,21.339142000000038],[39.996070000000032,21.338193000000047],[39.997884000000056,21.340387000000078],[39.997719000000075,21.340817000000072],[39.997670000000028,21.340888000000064],[39.997487000000035,21.340823000000057],[39.997375000000034,21.340836000000024],[39.997274000000061,21.340860000000077],[39.997196000000031,21.340893000000051],[39.997145000000046,21.340950000000078],[39.997090000000071,21.341009000000042],[39.997061000000031,21.34108800000007],[39.997036000000037,21.341261000000031],[39.996858000000032,21.341200000000072],[39.996704000000079,21.341132000000073],[39.996483000000069,21.340976000000069],[39.995809000000065,21.340041000000042],[39.995098000000041,21.339142000000038]]]},"properties":{"OBJECTID":16,"Name":"500-91","Street":"91","Area":"مشعر عرفات","Capacity":500,"Shape_Length":0.0085894383994460834,"Shape_Area":3.9721584999802875e-06}},{"type":"Feature","id":17,"geometry":{"type":"Polygon","coordinates":[[[40.001593000000071,21.330204000000037],[39.997291000000075,21.332474000000047],[39.996461000000068,21.329818000000046],[40.001077000000066,21.329098000000045],[40.001593000000071,21.330204000000037]]]},"properties":{"OBJECTID":17,"Name":"الاتصالات القديم","Street":"1","Area":"مشعر عرفات","Capacity":400,"Shape_Length":0.013539094882966413,"Shape_Area":9.3935139999956995e-06}},{"type":"Feature","id":18,"geometry":{"type":"Polygon","coordinates":[[[39.988734000000079,21.378212000000076],[39.989007000000072,21.378626000000054],[39.989141000000075,21.378688000000068],[39.989294000000029,21.378718000000049],[39.989334000000042,21.378812000000039],[39.989356000000043,21.378907000000027],[39.989142000000072,21.379278000000056],[39.988786000000061,21.379762000000028],[39.988559000000066,21.380030000000033],[39.988388000000043,21.380186000000037],[39.988230000000044,21.38032000000004],[39.987965000000031,21.38050000000004],[39.987716000000034,21.380664000000024],[39.987424000000033,21.380815000000041],[39.987101000000052,21.380926000000045],[39.986774000000025,21.38101000000006],[39.986420000000066,21.381076000000064],[39.98552200000006,21.381124000000057],[39.984770000000026,21.381119000000069],[39.984132000000045,21.381099000000063],[39.983730000000037,21.381091000000026],[39.983711000000028,21.380794000000037],[39.983646000000078,21.380537000000061],[39.983586000000059,21.380266000000063],[39.983472000000063,21.379935000000046],[39.983370000000036,21.379738000000032],[39.983258000000035,21.379545000000064],[39.983070000000055,21.37926600000003],[39.982920000000036,21.379106000000036],[39.982871000000046,21.379063000000031],[39.982810000000029,21.378996000000029],[39.98274200000003,21.378960000000063],[39.982662000000062,21.378931000000023],[39.982541000000026,21.378896000000054],[39.982372000000055,21.378861000000029],[39.982297000000074,21.378725000000031],[39.982238000000052,21.378554000000065],[39.982193000000052,21.378325000000075],[39.982148000000052,21.378161000000034],[39.982120000000066,21.377987000000076],[39.982056000000057,21.377697000000069],[39.982026000000076,21.377535000000023],[39.981989000000056,21.377417000000037],[39.981963000000064,21.37730700000003],[39.981943000000058,21.37721700000003],[39.981866000000025,21.377013000000034],[39.981796000000031,21.37690200000003],[39.981761000000063,21.37680800000004],[39.981826000000069,21.37675500000006],[39.981925000000047,21.376738000000046],[39.982324000000062,21.37680000000006],[39.982699000000025,21.376911000000064],[39.983340000000055,21.377301000000045],[39.983855000000062,21.377636000000052],[39.984423000000049,21.377930000000049],[39.984662000000071,21.378103000000067],[39.98483600000003,21.37829000000005],[39.98519600000003,21.378700000000038],[39.985593000000051,21.379054000000053],[39.985947000000067,21.379274000000066],[39.986163000000033,21.379382000000078],[39.98632200000003,21.379462000000046],[39.986371000000076,21.379482000000053],[39.986422000000061,21.379494000000022],[39.986475000000041,21.379514000000029],[39.986544000000038,21.379533000000038],[39.986612000000036,21.379548000000057],[39.986697000000049,21.379540000000077],[39.986764000000051,21.379530000000045],[39.986826000000065,21.379503000000057],[39.98687300000006,21.37948700000004],[39.986920000000055,21.379463000000044],[39.987051000000065,21.379375000000039],[39.987198000000035,21.379282000000046],[39.98736800000006,21.379163000000062],[39.987527000000057,21.379044000000079],[39.988189000000034,21.378607000000045],[39.988734000000079,21.378212000000076]]]},"properties":{"OBJECTID":18,"Name":"المغمس الجديد","Street":"91","Area":"مشعر عرفات","Capacity":400,"Shape_Length":0.020738110015642436,"Shape_Area":1.4961877999948924e-05}},{"type":"Feature","id":19,"geometry":{"type":"Polygon","coordinates":[[[39.970221000000038,21.348713000000032],[39.969816000000037,21.348091000000068],[39.970660000000066,21.347532000000058],[39.971133000000066,21.348159000000066],[39.970221000000038,21.348713000000032]]]},"properties":{"OBJECTID":19,"Name":"250-52","Street":"52","Area":"مشعر عرفات","Capacity":100,"Shape_Length":0.003607048108089074,"Shape_Area":7.9261450000059506e-07}},{"type":"Feature","id":20,"geometry":{"type":"Polygon","coordinates":[[[39.995090000000062,21.339141000000041],[39.994780000000048,21.338821000000053],[39.995975000000044,21.337641000000076],[39.995543000000055,21.337206000000037],[39.996589000000029,21.336209000000053],[39.997201000000075,21.336854000000073],[39.997163000000057,21.337219000000061],[39.996994000000029,21.33734400000003],[39.996949000000029,21.337371000000076],[39.996906000000024,21.33738100000005],[39.995090000000062,21.339141000000041]]]},"properties":{"OBJECTID":20,"Name":"قافلة المرضى","Street":"91","Area":"مشعر عرفات","Capacity":100,"Shape_Length":0.0082749121525646924,"Shape_Area":2.2898859999778225e-06}},{"type":"Feature","id":21,"geometry":{"type":"Polygon","coordinates":[[[39.95599100000004,21.346206000000052],[39.956323000000054,21.346369000000038],[39.957761000000062,21.347700000000032],[39.955800000000067,21.348160000000064],[39.955478000000028,21.347950000000026],[39.955682000000024,21.347715000000051],[39.95557000000008,21.34749000000005],[39.95497400000005,21.34699100000006],[39.95468500000004,21.346741000000065],[39.955012000000067,21.346516000000065],[39.955532000000062,21.346321000000046],[39.95599100000004,21.346206000000052]]]},"properties":{"OBJECTID":21,"Name":"150-26","Street":"26","Area":"مشعر عرفات","Capacity":75,"Shape_Length":0.0078753980701141337,"Shape_Area":3.1145550000316532e-06}},{"type":"Feature","id":22,"geometry":{"type":"Polygon","coordinates":[[[39.957971000000043,21.349524000000031],[39.957826000000068,21.349610000000041],[39.957768000000044,21.349618000000078],[39.956852000000026,21.348960000000034],[39.956842000000051,21.348887000000047],[39.956855000000076,21.348797000000047],[39.95690600000006,21.348726000000056],[39.958138000000076,21.348005000000057],[39.959056000000032,21.348879000000068],[39.958093000000076,21.349426000000051],[39.957971000000043,21.349524000000031]]]},"properties":{"OBJECTID":22,"Name":"150-38","Street":"38","Area":"مشعر عرفات","Capacity":150,"Shape_Length":0.0055659889161353629,"Shape_Area":1.8947589999940184e-06}},{"type":"Feature","id":23,"geometry":{"type":"Polygon","coordinates":[[[39.959566000000052,21.350872000000038],[39.958014000000048,21.349807000000055],[39.957932000000028,21.349667000000068],[39.957976000000031,21.349565000000041],[39.959069000000056,21.348936000000037],[39.960423000000048,21.350080000000048],[39.96044500000005,21.350310000000036],[39.960403000000042,21.350448000000029],[39.960318000000029,21.35054400000007],[39.960211000000072,21.350623000000041],[39.959822000000031,21.350834000000077],[39.959672000000069,21.35088600000006],[39.959566000000052,21.350872000000038]]]},"properties":{"OBJECTID":23,"Name":"150-44","Street":"44","Area":"مشعر عرفات","Capacity":500,"Shape_Length":0.0065339940822171354,"Shape_Area":2.6293885000318412e-06}},{"type":"Feature","id":24,"geometry":{"type":"Polygon","coordinates":[[[39.997536000000025,21.353272000000061],[39.996605000000045,21.352915000000053],[39.996413000000075,21.352915000000053],[39.996371000000067,21.352943000000039],[39.996347000000071,21.352907000000073],[39.996360000000038,21.352839000000074],[39.996416000000067,21.352782000000047],[39.996557000000053,21.352206000000024],[39.996497000000033,21.35213600000003],[39.996512000000052,21.352057000000059],[39.997434000000055,21.352592000000072],[39.997933000000046,21.35291200000006],[39.997944000000075,21.353012000000035],[39.997944000000075,21.353112000000067],[39.997869000000037,21.353236000000038],[39.997756000000038,21.353321000000051],[39.997644000000037,21.353366000000051],[39.997558000000026,21.353331000000026],[39.997536000000025,21.353272000000061]]]},"properties":{"OBJECTID":24,"Name":"700-91","Street":"91","Area":"مشعر عرفات","Capacity":139,"Shape_Length":0.0046198055036545853,"Shape_Area":9.7994549998956817e-07}},{"type":"Feature","id":25,"geometry":{"type":"Polygon","coordinates":[[[39.966985000000079,21.358062000000075],[39.969126000000074,21.359700000000032],[39.968010000000049,21.360350000000039],[39.965907000000072,21.358726000000047],[39.966985000000079,21.358062000000075]]]},"properties":{"OBJECTID":25,"Name":"حجاج عمان","Street":"56","Area":"مشعر عرفات","Capacity":500,"Shape_Length":0.0079103688668365219,"Shape_Area":3.183360999966728e-06}},{"type":"Feature","id":26,"geometry":{"type":"Polygon","coordinates":[[[39.99192800000003,21.379548000000057],[39.990453000000059,21.379777000000047],[39.99007800000004,21.377964000000077],[39.990019000000075,21.37758400000007],[39.98997600000007,21.377225000000067],[39.991161000000034,21.376496000000031],[39.991328000000067,21.376575000000059],[39.991403000000048,21.376680000000079],[39.99192800000003,21.379548000000057]]]},"properties":{"OBJECTID":26,"Name":"مساندة","Street":"91","Area":"مشعر عرفات","Capacity":700,"Shape_Length":0.0087108819612376868,"Shape_Area":4.3776509999574812e-06}},{"type":"Feature","id":27,"geometry":{"type":"Polygon","coordinates":[[[39.958264000000042,21.35181300000005],[39.95789700000006,21.352032000000065],[39.957534000000066,21.352350000000058],[39.957197000000065,21.352726000000075],[39.956992000000071,21.353081000000032],[39.956765000000075,21.35362200000003],[39.956388000000061,21.354519000000039],[39.956252000000063,21.354618000000073],[39.953458000000069,21.351574000000028],[39.953515000000039,21.351289000000065],[39.953711000000055,21.350932000000057],[39.95399400000008,21.350639000000058],[39.954382000000066,21.350297000000069],[39.955328000000065,21.34972700000003],[39.958273000000077,21.351738000000068],[39.958264000000042,21.35181300000005]]]},"properties":{"OBJECTID":27,"Name":"القطار","Street":"91","Area":"مشعر عرفات","Capacity":1000,"Shape_Length":0.014053191642102929,"Shape_Area":1.166260400001771e-05}},{"type":"Feature","id":28,"geometry":{"type":"Polygon","coordinates":[[[39.953659000000073,21.342606000000046],[39.953125000000057,21.34295000000003],[39.952562000000057,21.343441000000041],[39.952163000000041,21.343887000000052],[39.951660000000061,21.344572000000028],[39.951313000000027,21.345369000000062],[39.947714000000076,21.342198000000053],[39.949244000000078,21.340436000000068],[39.952005000000042,21.341631000000064],[39.953280000000063,21.342121000000077],[39.953383000000031,21.342178000000047],[39.95348000000007,21.342248000000041],[39.953608000000031,21.34239400000007],[39.953677000000027,21.342527000000075],[39.953659000000073,21.342606000000046]]]},"properties":{"OBJECTID":28,"Name":"الجامعة الجديد","Street":"91","Area":"مشعر عرفات","Capacity":1000,"Shape_Length":0.01586680241482653,"Shape_Area":1.4096344499879067e-05}},{"type":"Feature","id":29,"geometry":{"type":"Polygon","coordinates":[[[39.980207000000064,21.350362000000075],[39.980189000000053,21.350389000000064],[39.980157000000077,21.35041300000006],[39.980134000000078,21.350444000000039],[39.98010800000003,21.350508000000048],[39.98010000000005,21.350555000000043],[39.978903000000059,21.351268000000061],[39.978851000000077,21.351187000000039],[39.978710000000035,21.351267000000064],[39.978619000000037,21.351240000000075],[39.978527000000042,21.351187000000039],[39.978285000000028,21.350844000000052],[39.978424000000075,21.350710000000049],[39.97847500000006,21.350628000000029],[39.979690000000062,21.34990300000004],[39.979820000000075,21.349932000000024],[39.97996900000004,21.34985800000004],[39.980070000000069,21.350007000000062],[39.980209000000059,21.350266000000033],[39.980228000000068,21.350322000000062],[39.980207000000064,21.350362000000075]]]},"properties":{"OBJECTID":29,"Name":"250-56","Street":"56","Area":"مشعر عرفات","Capacity":200,"Shape_Length":0.0050826355744968263,"Shape_Area":1.3965440000348281e-06}},{"type":"Feature","id":30,"geometry":{"type":"Polygon","coordinates":[[[39.98468900000006,21.345539000000031],[39.982995000000074,21.346503000000041],[39.982476000000077,21.345716000000039],[39.983629000000064,21.345065000000034],[39.984000000000037,21.344870000000071],[39.98409300000003,21.344840000000033],[39.984166000000073,21.344823000000076],[39.984225000000038,21.34484800000007],[39.984266000000048,21.344895000000065],[39.98468900000006,21.345539000000031]]]},"properties":{"OBJECTID":30,"Name":"150-56","Street":"56","Area":"مشعر عرفات","Capacity":350,"Shape_Length":0.0057046401715693451,"Shape_Area":1.8161839999697731e-06}},{"type":"Feature","id":31,"geometry":{"type":"Polygon","coordinates":[[[39.98185600000005,21.347689000000059],[39.981812000000048,21.347698000000037],[39.981044000000054,21.348158000000069],[39.980830000000026,21.347861000000023],[39.981663000000026,21.347383000000036],[39.98185600000005,21.347689000000059]]]},"properties":{"OBJECTID":31,"Name":"200-56","Street":"56","Area":"مشعر عرفات","Capacity":150,"Shape_Length":0.0026283836741460872,"Shape_Area":3.3767700002989832e-07}},{"type":"Feature","id":32,"geometry":{"type":"Polygon","coordinates":[[[39.977348000000063,21.350402000000031],[39.97583000000003,21.351285000000075],[39.975728000000061,21.351292000000058],[39.975567000000069,21.351378000000068],[39.975324000000057,21.350990000000024],[39.975322000000062,21.350919000000033],[39.975379000000032,21.350855000000024],[39.976995000000045,21.349882000000036],[39.977348000000063,21.350402000000031]]]},"properties":{"OBJECTID":32,"Name":"300-56","Street":"56","Area":"مشعر عرفات","Capacity":250,"Shape_Length":0.0051702622035637354,"Shape_Area":1.2202350000523575e-06}},{"type":"Feature","id":33,"geometry":{"type":"Polygon","coordinates":[[[39.971159000000057,21.355825000000038],[39.969611000000043,21.356781000000069],[39.969254000000035,21.356246000000056],[39.969225000000051,21.35616200000004],[39.969227000000046,21.356077000000028],[39.969288000000063,21.356005000000039],[39.970649000000037,21.355166000000054],[39.971159000000057,21.355825000000038]]]},"properties":{"OBJECTID":33,"Name":"350-56","Street":"56","Area":"مشعر عرفات","Capacity":500,"Shape_Length":0.0051629567934450282,"Shape_Area":1.4769690000225891e-06}},{"type":"Feature","id":34,"geometry":{"type":"Polygon","coordinates":[[[39.977156000000036,21.355751000000055],[39.97703000000007,21.355830000000026],[39.97698100000008,21.355763000000024],[39.976762000000065,21.35588000000007],[39.976749000000041,21.355972000000065],[39.976200000000063,21.356294000000048],[39.976079000000027,21.356272000000047],[39.975570000000062,21.356580000000065],[39.975654000000077,21.356696000000056],[39.975584000000026,21.356733000000077],[39.975256000000059,21.356253000000038],[39.975249000000076,21.356178000000057],[39.975268000000028,21.356115000000045],[39.975294000000076,21.356075000000033],[39.976693000000068,21.355233000000055],[39.976741000000061,21.355233000000055],[39.976796000000036,21.355244000000027],[39.976825000000076,21.355265000000031],[39.977156000000036,21.355751000000055]]]},"properties":{"OBJECTID":34,"Name":"200-62","Street":"62","Area":"مشعر عرفات","Capacity":350,"Shape_Length":0.0052806534106852971,"Shape_Area":1.1492780000072097e-06}},{"type":"Feature","id":35,"geometry":{"type":"Polygon","coordinates":[[[39.992024000000072,21.343250000000069],[39.990536000000077,21.344078000000025],[39.990162000000055,21.343512000000032],[39.991663000000074,21.342655000000036],[39.992024000000072,21.343250000000069]]]},"properties":{"OBJECTID":35,"Name":"100-56","Street":"56","Area":"مشعر عرفات","Capacity":500,"Shape_Length":0.0048056366308024834,"Shape_Area":1.1771760000220611e-06}},{"type":"Feature","id":36,"geometry":{"type":"Polygon","coordinates":[[[39.995100000000036,21.345534000000043],[39.993585000000053,21.346450000000061],[39.993242000000066,21.345940000000041],[39.994750000000067,21.34503600000005],[39.995100000000036,21.345534000000043]]]},"properties":{"OBJECTID":36,"Name":"100-62","Street":"62","Area":"مشعر عرفات","Capacity":350,"Shape_Length":0.0047518969824855047,"Shape_Area":1.077110999987385e-06}},{"type":"Feature","id":37,"geometry":{"type":"Polygon","coordinates":[[[39.994742000000031,21.338870000000043],[39.99604800000003,21.337559000000056],[39.99624300000005,21.337363000000039],[39.996474000000035,21.33707000000004],[39.996763000000044,21.336429000000066],[39.996935000000065,21.336510000000033],[39.996925000000033,21.336558000000025],[39.996943000000044,21.336609000000067],[39.997026000000062,21.336698000000069],[39.997112000000072,21.336817000000053],[39.997111000000075,21.33693100000005],[39.997073000000057,21.337140000000034],[39.997091000000069,21.337407000000042],[39.997116000000062,21.337564000000043],[39.997198000000026,21.337820000000022],[39.997763000000077,21.33850700000005],[39.997904000000062,21.33873600000004],[39.997965000000079,21.338890000000049],[39.99808100000007,21.339387000000045],[39.998136000000045,21.339690000000076],[39.998140000000035,21.339813000000049],[39.998125000000073,21.339973000000043],[39.998051000000032,21.340134000000035],[39.997937000000036,21.340289000000041],[39.99790100000007,21.340328000000056],[39.997881000000064,21.340343000000075],[39.997865000000047,21.340341000000024],[39.997778000000039,21.340233000000069],[39.997084000000029,21.339367000000038],[39.995895000000075,21.340184000000022],[39.994742000000031,21.338870000000043]]]},"properties":{"OBJECTID":37,"Name":"550-91","Street":"91","Area":"مشعر عرفات","Capacity":500,"Shape_Length":0.012115978993398039,"Shape_Area":6.3397980000495423e-06}},{"type":"Feature","id":38,"geometry":{"type":"Polygon","coordinates":[[[39.998784000000057,21.349169000000074],[39.99739100000005,21.348871000000031],[39.997367000000054,21.348810000000071],[39.997414000000049,21.348752000000047],[39.99743600000005,21.348644000000036],[39.997393000000045,21.348526000000049],[39.997562000000073,21.347268000000042],[39.997625000000028,21.347178000000042],[39.997635000000059,21.347052000000076],[39.997536000000025,21.346967000000063],[39.997584000000074,21.346931000000041],[39.997619000000043,21.346961000000078],[39.997655000000066,21.346975000000043],[39.997692000000029,21.346982000000025],[39.999159000000077,21.347254000000078],[39.998933000000079,21.347898000000043],[39.998929000000032,21.34871000000004],[39.998784000000057,21.349169000000074]]]},"properties":{"OBJECTID":38,"Name":"600-91","Street":"91","Area":"مشعر عرفات","Capacity":600,"Shape_Length":0.0070868270817389216,"Shape_Area":2.8890715000177068e-06}},{"type":"Feature","id":39,"geometry":{"type":"Polygon","coordinates":[[[39.955591000000027,21.345739000000037],[39.955649000000051,21.34582800000004],[39.955414000000076,21.345965000000035],[39.955178000000046,21.346097000000043],[39.954938000000027,21.346224000000063],[39.954696000000069,21.346347000000037],[39.95445200000006,21.346465000000023],[39.954205000000059,21.346578000000022],[39.954162000000053,21.346603000000073],[39.954115000000058,21.346623000000022],[39.954066000000068,21.346636000000046],[39.954015000000027,21.346643000000029],[39.953965000000039,21.346644000000026],[39.953914000000054,21.346638000000041],[39.953865000000064,21.346626000000072],[39.953818000000069,21.34660800000006],[39.953773000000069,21.346583000000066],[39.953732000000059,21.346553000000029],[39.953695000000039,21.34651800000006],[39.953663000000063,21.346479000000045],[39.952583000000061,21.345159000000024],[39.95255300000008,21.345119000000068],[39.952528000000029,21.345075000000065],[39.952509000000077,21.345029000000068],[39.952497000000051,21.344980000000078],[39.952490000000068,21.344931000000031],[39.952490000000068,21.344881000000044],[39.952496000000053,21.344831000000056],[39.95250800000008,21.344783000000064],[39.952526000000034,21.344736000000069],[39.952550000000031,21.344692000000066],[39.952579000000071,21.344652000000053],[39.952725000000044,21.344486000000074],[39.95287600000006,21.344324000000029],[39.953030000000069,21.344165000000032],[39.953189000000066,21.344011000000023],[39.953351000000055,21.343861000000061],[39.953517000000033,21.343714000000034],[39.953742000000034,21.343534000000034],[39.953972000000078,21.343359000000078],[39.954205000000059,21.343189000000052],[39.954443000000026,21.343026000000066],[39.95468500000004,21.342868000000067],[39.954931000000045,21.34271700000005],[39.956672000000026,21.341667000000029],[39.958520000000078,21.34053300000005],[39.959315000000061,21.340081000000055],[39.959373000000028,21.340057000000058],[39.959434000000044,21.34003800000005],[39.959495000000061,21.340025000000026],[39.959558000000072,21.340018000000043],[39.959621000000027,21.340015000000051],[39.959684000000038,21.340019000000041],[39.960961000000054,21.340209000000073],[39.961001000000067,21.340206000000023],[39.961040000000025,21.34021000000007],[39.961078000000043,21.340221000000042],[39.961114000000066,21.340238000000056],[39.961146000000042,21.340261000000055],[39.961809000000073,21.341204000000062],[39.958817000000067,21.343450000000075],[39.956979000000047,21.344790000000046],[39.956491000000028,21.345156000000031],[39.956043000000079,21.345450000000028],[39.955591000000027,21.345739000000037]],[[39.956016000000034,21.343119000000058],[39.955839000000026,21.343055000000049],[39.955303000000072,21.343059000000039],[39.95497400000005,21.343155000000024],[39.954605000000072,21.343357000000026],[39.95432900000003,21.343544000000065],[39.953964000000042,21.343824000000041],[39.953734000000054,21.343994000000066],[39.955029000000025,21.345601000000045],[39.957158000000049,21.344112000000052],[39.956579000000033,21.343438000000049],[39.956016000000034,21.343119000000058]]]},"properties":{"OBJECTID":39,"Name":"100-83","Street":"83","Area":"مشعر عرفات","Capacity":1600,"Shape_Length":0.032257134496711623,"Shape_Area":2.0322917000073195e-05}},{"type":"Feature","id":40,"geometry":{"type":"Polygon","coordinates":[[[39.963111000000026,21.340042000000039],[39.963318000000072,21.339436000000035],[39.963252000000068,21.339380000000062],[39.963167000000055,21.339371000000028],[39.963097000000062,21.339376000000073],[39.962188000000026,21.339934000000028],[39.959861000000046,21.33952800000003],[39.960074000000077,21.339172000000076],[39.961057000000039,21.338584000000026],[39.962341000000038,21.337816000000032],[39.963694000000032,21.337006000000031],[39.96405100000004,21.33715200000006],[39.964105000000075,21.337247000000048],[39.964143000000035,21.337357000000054],[39.964144000000033,21.337446000000057],[39.963945000000081,21.33799700000003],[39.963542000000075,21.339172000000076],[39.963200000000029,21.340066000000036],[39.963111000000026,21.340042000000039]]]},"properties":{"OBJECTID":40,"Name":"150-83","Street":"83","Area":"مشعر عرفات","Capacity":600,"Shape_Length":0.012522472510142338,"Shape_Area":6.1837250000562657e-06}},{"type":"Feature","id":41,"geometry":{"type":"Polygon","coordinates":[[[39.996980000000065,21.332777000000078],[39.995543000000055,21.333557000000042],[39.994205000000079,21.334451000000058],[39.993064000000061,21.335383000000036],[39.991553000000067,21.336525000000051],[39.990496000000064,21.336112000000071],[39.989103000000057,21.335755000000063],[39.99086200000005,21.329713000000027],[39.994475000000079,21.329746000000057],[39.994758000000047,21.329705000000047],[39.995022000000063,21.330677000000037],[39.99530500000003,21.331372000000044],[39.996357000000046,21.330956000000072],[39.996980000000065,21.332777000000078]]]},"properties":{"OBJECTID":41,"Name":"الاتصالات الجديد","Street":"1","Area":"مشعر عرفات","Capacity":400,"Shape_Length":0.024189801991072381,"Shape_Area":3.297732100009988e-05}},{"type":"Feature","id":42,"geometry":{"type":"Polygon","coordinates":[[[39.991013000000066,21.383821000000069],[39.988653000000056,21.384287000000029],[39.987807000000032,21.382743000000062],[39.987540000000024,21.381572000000062],[39.988448000000062,21.380970000000048],[39.98927400000008,21.380545000000041],[39.99002900000005,21.380411000000038],[39.991013000000066,21.383821000000069]]]},"properties":{"OBJECTID":42,"Name":"وادي الاخضر","Street":"8","Area":"مشعر عرفات","Capacity":1200,"Shape_Length":0.01170149736733744,"Shape_Area":8.8943855000620412e-06}}]
}