{"type":"FeatureCollection","features":[{"type":"Feature","geometry":{"type":"Polygon","coordinates":[[[39.818888,21.426779],[39.818479,21.426387],[39.818777,21.425952],[39.819183,21.426357],[39.818888,21.426779]]]},"properties":{"OBJECTID":1,"Name":"جبل الكعبة الغربية","Capacity":"0","Area":"المركزية","Shape_Length":0.0021819466828001638,"Shape_Area":2.9264188246178484e-7},"id":1},{"type":"Feature","geometry":{"type":"Polygon","coordinates":[[[39.81941,21.426746],[39.819965,21.427046],[39.819698,21.427426],[39.819137,21.42713],[39.81941,21.426746]]]},"properties":{"OBJECTID":2,"Name":"جبل الكعبة الشرقية","Capacity":"0","Area":"المركزية","Shape_Length":0.002199940658543496,"Shape_Area":2.93355510804236e-7},"id":2},{"type":"Feature","geometry":{"type":"Polygon","coordinates":[[[39.826102,21.416302],[39.826092,21.416465],[39.826065,21.416577],[39.826058,21.416771],[39.82605,21.416987],[39.825993,21.417049],[39.825956,21.417066],[39.825816,21.417062],[39.825535,21.417066],[39.825446,21.417066],[39.825344,21.417031],[39.825257,21.416933],[39.825218,21.416855],[39.825211,21.416751],[39.825217,21.416667],[39.825251,21.416569],[39.825299,21.416495],[39.825385,21.416419],[39.825444,21.416376],[39.82549,21.416334],[39.826102,21.416302]]]},"properties":{"OBJECTID":3,"Name":"باب الملك","Capacity":"0","Area":"المركزية","Shape_Length":0.002893322256387574,"Shape_Area":5.779338281364494e-7},"id":3},{"type":"Feature","geometry":{"type":"Polygon","coordinates":[[[39.829195,21.417006],[39.828978,21.417024],[39.828926,21.417024],[39.828926,21.416836],[39.828917,21.416781],[39.829103,21.416704],[39.829156,21.416692],[39.829214,21.416674],[39.829195,21.417006]]]},"properties":{"OBJECTID":4,"Name":"اجياد المصافي","Capacity":"0","Area":"المركزية","Shape_Length":0.0011616471536347187,"Shape_Area":8.206899204823543e-8},"id":4},{"type":"Feature","geometry":{"type":"Polygon","coordinates":[[[39.831076,21.424007],[39.830628,21.424193],[39.830565,21.424217],[39.830459,21.424246],[39.830388,21.424257],[39.830289,21.424269],[39.830249,21.42427],[39.830206,21.424269],[39.830179,21.424234],[39.830113,21.424104],[39.830109,21.424082],[39.830102,21.423965],[39.830142,21.423748],[39.830171,21.423706],[39.830198,21.423681],[39.83043,21.423483],[39.830538,21.423395],[39.830654,21.423299],[39.830732,21.423287],[39.830778,21.423276],[39.830881,21.423358],[39.83094,21.423417],[39.830987,21.423468],[39.831027,21.423524],[39.831071,21.423618],[39.831131,21.423573],[39.831271,21.423673],[39.831214,21.423716],[39.831265,21.423769],[39.83136,21.423842],[39.831386,21.423886],[39.831238,21.423915],[39.831162,21.423967],[39.831076,21.424007]]]},"properties":{"OBJECTID":5,"Name":"باب علي","Capacity":"0","Area":"المركزية","Shape_Length":0.003633499538679869,"Shape_Area":7.567639327131697e-7},"id":5},{"type":"Feature","geometry":{"type":"Polygon","coordinates":[[[39.819177,21.427359],[39.81954,21.427563],[39.819568,21.428017],[39.819448,21.428385],[39.819393,21.42851],[39.819128,21.428791],[39.819098,21.428881],[39.819018,21.429033],[39.818715,21.428966],[39.818423,21.429373],[39.818227,21.429299],[39.817365,21.430644],[39.816943,21.430477],[39.817559,21.429614],[39.818347,21.428631],[39.818568,21.428238],[39.818647,21.427996],[39.8188,21.427633],[39.819029,21.427355],[39.819177,21.427359]]]},"properties":{"OBJECTID":6,"Name":"ساحة جرول","Capacity":"0","Area":"المركزية","Shape_Length":0.009048288736286702,"Shape_Area":0.000002200482965610374},"id":6},{"type":"Feature","geometry":{"type":"Polygon","coordinates":[[[39.828861,21.420665],[39.828672,21.420645],[39.828593,21.420631],[39.828332,21.420577],[39.828223,21.420554],[39.82801,21.420513],[39.827793,21.420483],[39.827583,21.42045],[39.827384,21.420407],[39.827313,21.420386],[39.827296,21.420294],[39.827315,21.420185],[39.827355,21.420136],[39.8274,21.4201],[39.827467,21.42009],[39.827694,21.420122],[39.827866,21.420159],[39.828289,21.420231],[39.828715,21.420328],[39.828855,21.420362],[39.828861,21.420665]]]},"properties":{"OBJECTID":7,"Name":"اجياد السد","Capacity":"0","Area":"المركزية","Shape_Length":0.003685798847973592,"Shape_Area":5.091236120345361e-7},"id":7},{"type":"Feature","geometry":{"type":"Polygon","coordinates":[[[39.827348,21.415035],[39.827257,21.415097],[39.827152,21.415217],[39.826946,21.415469],[39.826914,21.415534],[39.826851,21.415581],[39.826783,21.415581],[39.826744,21.415569],[39.826724,21.415564],[39.826701,21.415538],[39.826677,21.415506],[39.826664,21.415474],[39.826662,21.415448],[39.826673,21.415388],[39.826975,21.415022],[39.82704,21.414943],[39.827101,21.414888],[39.827239,21.414847],[39.827393,21.414817],[39.82755,21.414818],[39.827542,21.414917],[39.827429,21.415144],[39.827509,21.415158],[39.827495,21.415179],[39.827451,21.415234],[39.827427,21.41528],[39.827407,21.415345],[39.827399,21.415383],[39.827392,21.415423],[39.827388,21.415473],[39.827389,21.415518],[39.827394,21.415565],[39.827402,21.415624],[39.827429,21.415718],[39.82747,21.415787],[39.827503,21.415845],[39.827526,21.415919],[39.827549,21.416018],[39.827561,21.416087],[39.827571,21.416124],[39.827637,21.416245],[39.827596,21.41629],[39.827578,21.416369],[39.827595,21.416429],[39.827693,21.416651],[39.827766,21.416827],[39.827766,21.416887],[39.827747,21.416943],[39.827722,21.416982],[39.827695,21.417006],[39.827661,21.417029],[39.827604,21.417048],[39.827541,21.417046],[39.827498,21.417038],[39.827441,21.417016],[39.827419,21.416996],[39.827398,21.416979],[39.827385,21.416959],[39.827371,21.416932],[39.827359,21.416876],[39.827363,21.416828],[39.827379,21.416752],[39.827388,21.416692],[39.82739,21.416625],[39.827388,21.416574],[39.827376,21.416517],[39.827358,21.416456],[39.82733,21.416387],[39.827319,21.41636],[39.827314,21.416349],[39.827277,21.416278],[39.827254,21.416248],[39.827227,21.416216],[39.827176,21.416168],[39.827125,21.41611],[39.827112,21.416091],[39.827092,21.416048],[39.82709,21.415934],[39.827089,21.415792],[39.827109,21.415754],[39.827118,21.4156],[39.827132,21.415527],[39.827166,21.415415],[39.827167,21.415395],[39.827198,21.415344],[39.827222,21.415302],[39.827247,21.415264],[39.827281,21.415216],[39.827397,21.415138],[39.827384,21.415013],[39.827348,21.415035]]]},"properties":{"OBJECTID":8,"Name":"ريع بخش","Capacity":"0","Area":"المركزية","Shape_Length":0.007169745018089963,"Shape_Area":8.726785386295437e-7},"id":8},{"type":"Feature","geometry":{"type":"Polygon","coordinates":[[[39.831868,21.428507],[39.831911,21.428749],[39.831902,21.428921],[39.831966,21.428927],[39.832667,21.429011],[39.832773,21.429064],[39.832811,21.429135],[39.8328,21.429222],[39.832081,21.429785],[39.831715,21.430052],[39.831131,21.430424],[39.830697,21.430643],[39.829939,21.4309],[39.829695,21.430972],[39.829594,21.430927],[39.829479,21.430796],[39.829468,21.430691],[39.829483,21.42967],[39.829532,21.429024],[39.829553,21.428959],[39.829751,21.428656],[39.829852,21.42847],[39.829878,21.428422],[39.829977,21.42823],[39.830056,21.428216],[39.830214,21.428237],[39.830472,21.428235],[39.83066,21.428282],[39.830915,21.42833],[39.831102,21.42835],[39.831227,21.428328],[39.831466,21.428225],[39.831638,21.428199],[39.831707,21.428201],[39.831745,21.42826],[39.831868,21.428507]]]},"properties":{"OBJECTID":9,"Name":"شعب عامر","Capacity":"0","Area":"المركزية","Shape_Length":0.01016023777000162,"Shape_Area":0.0000058677474594550295},"id":9}]}