{"type":"FeatureCollection","features":[{"type":"Feature","geometry":{"type":"Polygon","coordinates":[[[39.947996,21.339345],[39.947049,21.337725],[39.947262,21.337606],[39.948173,21.339237],[39.948337,21.339461],[39.948596,21.339717],[39.948912,21.33989],[39.949235,21.340047],[39.949163,21.340203],[39.948838,21.340054],[39.948512,21.339877],[39.948306,21.339722],[39.948109,21.339512],[39.947996,21.339345]]]},"properties":{"OBJECTID":1,"ASM_Code":"ASMARF1","Masher":"ARF","ASM_Name":"مدخل كوبري الجامعة الأول","Capacity":"0","lat":21.3364437801564,"lon":39.9464377856753,"Shape_Length":0.006998476343669289,"Shape_Area":6.914649121018327e-7},"id":1},{"type":"Feature","geometry":{"type":"Polygon","coordinates":[[[39.990045,21.379989],[39.989963,21.37967],[39.989844,21.379534],[39.989603,21.379487],[39.989464,21.379537],[39.989152,21.379971],[39.988918,21.380227],[39.988684,21.380452],[39.9885,21.3806],[39.988386,21.380472],[39.98856,21.380324],[39.98878,21.380107],[39.988998,21.379866],[39.989322,21.379395],[39.989511,21.379319],[39.989771,21.379304],[39.990033,21.379452],[39.990154,21.379619],[39.990233,21.379943],[39.990045,21.379989]]]},"properties":{"OBJECTID":2,"ASM_Code":"ASMARF10","Masher":"ARF","ASM_Name":"مدخل الوادي الاخضر","Capacity":"0","lat":21.37980637236626,"lon":39.99011593290402,"Shape_Length":0.005448742335051878,"Shape_Area":4.7388292415852986e-7},"id":2},{"type":"Feature","geometry":{"type":"Polygon","coordinates":[[[39.950808,21.349986],[39.950457,21.349886],[39.950506,21.349715],[39.950566,21.349729],[39.950652,21.349735],[39.95075,21.349734],[39.950882,21.349715],[39.951082,21.349613],[39.951159,21.349526],[39.951207,21.349399],[39.951212,21.34915],[39.951116,21.348845],[39.950992,21.348157],[39.950936,21.347727],[39.951126,21.347709],[39.951173,21.348129],[39.951333,21.348779],[39.951551,21.349375],[39.951806,21.349917],[39.951698,21.350025],[39.951533,21.350098],[39.951073,21.35005],[39.950808,21.349986]]]},"properties":{"OBJECTID":3,"ASM_Code":"ASMARF11","Masher":"ARF","ASM_Name":"مدخل طريق الملك عبدالله","Capacity":"0","lat":21.349833840059716,"lon":39.95066980996381,"Shape_Length":0.006685222407095545,"Shape_Area":9.379198835421975e-7},"id":3},{"type":"Feature","geometry":{"type":"Polygon","coordinates":[[[39.956617,21.355711],[39.956358,21.355507],[39.956446,21.355398],[39.955751,21.354579],[39.955307,21.35411],[39.955424,21.353987],[39.955856,21.354466],[39.956545,21.355197],[39.957146,21.353748],[39.957252,21.353811],[39.956645,21.355464],[39.956755,21.355558],[39.956617,21.355711]]]},"properties":{"OBJECTID":4,"ASM_Code":"ASMARF12","Masher":"ARF","ASM_Name":"مدخل طريق الملك فيصل 50","Capacity":"0","lat":21.35547064675302,"lon":39.956556170430986,"Shape_Length":0.00781308606934506,"Shape_Area":6.373191225365075e-7},"id":4},{"type":"Feature","geometry":{"type":"Polygon","coordinates":[[[39.967085,21.326637],[39.966915,21.326307],[39.967246,21.326168],[39.967411,21.326503],[39.967682,21.327073],[39.968109,21.327998],[39.96832,21.328546],[39.968191,21.328585],[39.96799,21.328032],[39.967811,21.327628],[39.967555,21.327116],[39.967361,21.327056],[39.967085,21.326637]]]},"properties":{"OBJECTID":5,"ASM_Code":"ASMARF2","Masher":"ARF","ASM_Name":"مدخل كوبري عرفات الثاني","Capacity":"0","lat":21.326390695174496,"lon":39.96713220218942,"Shape_Length":0.005784634114342458,"Shape_Area":5.16410643373189e-7},"id":5},{"type":"Feature","geometry":{"type":"Polygon","coordinates":[[[39.990895,21.329758],[39.990477,21.331247],[39.990128,21.332491],[39.989917,21.333265],[39.989708,21.333224],[39.989933,21.332428],[39.990109,21.331766],[39.990081,21.331631],[39.990186,21.331176],[39.990583,21.329712],[39.990628,21.329429],[39.990941,21.329469],[39.990895,21.329758]]]},"properties":{"OBJECTID":6,"ASM_Code":"ASMARF3","Masher":"ARF","ASM_Name":"مدخل مواقف حجاج البر","Capacity":"0","lat":21.329533549633652,"lon":39.99078638108665,"Shape_Length":0.008381950191002432,"Shape_Area":0.000001040575630154379},"id":6},{"type":"Feature","geometry":{"type":"Polygon","coordinates":[[[40.006071,21.328441],[40.005745,21.32854],[40.003928,21.329471],[40.002665,21.330033],[40.001529,21.330642],[40.001446,21.330494],[40.002598,21.329918],[40.003349,21.329523],[40.003589,21.329344],[40.004975,21.328631],[40.004983,21.328278],[40.005685,21.328166],[40.006052,21.328135],[40.006379,21.328119],[40.006391,21.32842],[40.006071,21.328441]]]},"properties":{"OBJECTID":7,"ASM_Code":"ASMARF4","Masher":"ARF","ASM_Name":"مدخل طريق الهدا - شارع صاد","Capacity":"0","lat":21.328289000337122,"lon":40.00623199980697,"Shape_Length":0.01159896160302028,"Shape_Area":0.0000014009090219311884},"id":7},{"type":"Feature","geometry":{"type":"Polygon","coordinates":[[[39.960883,21.360631],[39.960814,21.360508],[39.96004,21.360881],[39.959993,21.360801],[39.960734,21.360368],[39.960938,21.360255],[39.960884,21.360043],[39.960679,21.359846],[39.960768,21.359745],[39.960966,21.359962],[39.961197,21.360202],[39.961419,21.360154],[39.962051,21.359829],[39.962114,21.359923],[39.961803,21.36008],[39.961294,21.360298],[39.961022,21.360412],[39.961084,21.360527],[39.960883,21.360631]]]},"properties":{"OBJECTID":8,"ASM_Code":"ASMARF5","Masher":"ARF","ASM_Name":"مدخل طريق الجوهرة 56","Capacity":"0","lat":21.360411157848716,"lon":39.960935586408254,"Shape_Length":0.006054131174235253,"Shape_Area":3.991459552208373e-7},"id":8},{"type":"Feature","geometry":{"type":"Polygon","coordinates":[[[39.961948,21.361975],[39.961856,21.361651],[39.962097,21.361582],[39.962103,21.361438],[39.961992,21.361256],[39.961775,21.361006],[39.961859,21.360917],[39.962114,21.361187],[39.962471,21.361583],[39.963409,21.361584],[39.963832,21.361596],[39.963829,21.361729],[39.963412,21.361717],[39.962599,21.361715],[39.962148,21.361769],[39.962188,21.361914],[39.961948,21.361975]]]},"properties":{"OBJECTID":9,"ASM_Code":"ASMARF6","Masher":"ARF","ASM_Name":"مدخل طريق سوق العرب 62","Capacity":"0","lat":21.361750011853587,"lon":39.96206988511716,"Shape_Length":0.005879846038116613,"Shape_Area":4.594992998473968e-7},"id":9},{"type":"Feature","geometry":{"type":"Polygon","coordinates":[[[39.965809,21.366419],[39.96569,21.366181],[39.966035,21.366042],[39.966887,21.365656],[39.967555,21.365213],[39.968032,21.364964],[39.968182,21.365167],[39.967736,21.365456],[39.967017,21.365874],[39.966153,21.366271],[39.965809,21.366419]]]},"properties":{"OBJECTID":10,"ASM_Code":"ASMARF7","Masher":"ARF","ASM_Name":"مدخل الترددي 1","Capacity":"0","lat":21.366217128817482,"lon":39.96593784495565,"Shape_Length":0.005854037186486332,"Shape_Area":7.12323728877552e-7},"id":10},{"type":"Feature","geometry":{"type":"Polygon","coordinates":[[[39.967177,21.367768],[39.967017,21.367459],[39.967327,21.367347],[39.967834,21.36725],[39.968301,21.367229],[39.968792,21.36725],[39.969349,21.367353],[39.969716,21.367443],[39.969652,21.367607],[39.969298,21.367514],[39.968755,21.367434],[39.967875,21.367444],[39.967427,21.367531],[39.967495,21.367657],[39.967177,21.367768]]]},"properties":{"OBJECTID":11,"ASM_Code":"ASMARF8","Masher":"ARF","ASM_Name":"مدخل الترددي 2","Capacity":"0","lat":21.367528561593872,"lon":39.967262704610164,"Shape_Length":0.006006104989612608,"Shape_Area":5.592223831319874e-7},"id":11},{"type":"Feature","geometry":{"type":"Polygon","coordinates":[[[39.97139,21.372541],[39.9712,21.372349],[39.971429,21.372151],[39.972266,21.371468],[39.972834,21.370972],[39.973131,21.370696],[39.973268,21.370822],[39.972963,21.371112],[39.972373,21.371592],[39.971542,21.372265],[39.971619,21.372342],[39.97139,21.372541]]]},"properties":{"OBJECTID":12,"ASM_Code":"ASMARF9","Masher":"ARF","ASM_Name":"مدخل الترددي 3","Capacity":"0","lat":21.372321266413337,"lon":39.971362550141635,"Shape_Length":0.0056620256864483125,"Shape_Area":4.666388290924161e-7},"id":12},{"type":"Feature","geometry":{"type":"Polygon","coordinates":[[[39.862608,21.430792],[39.862469,21.430608],[39.86263,21.430505],[39.863867,21.429674],[39.863993,21.429902],[39.862762,21.430692],[39.862608,21.430792]]]},"properties":{"OBJECTID":13,"ASM_Code":"ASMMIN1","Masher":"MIN","ASM_Name":"مدخل طريق الملك فهد - شارع الحج","Capacity":"0","lat":21.43056699996714,"lon":39.86263400035887,"Shape_Length":0.0038192092197941226,"Shape_Area":4.0369039042382773e-7},"id":13},{"type":"Feature","geometry":{"type":"Polygon","coordinates":[[[39.903985,21.43111],[39.903803,21.430678],[39.903706,21.430561],[39.90335,21.430239],[39.903555,21.430087],[39.903789,21.430274],[39.904098,21.430607],[39.904274,21.430833],[39.903985,21.43111]]]},"properties":{"OBJECTID":14,"ASM_Code":"ASMMIN10","Masher":"MIN","ASM_Name":"مدخل طريق الملك عبدالله - المعيصم","Capacity":"0","lat":21.430544999851918,"lon":39.90388999992359,"Shape_Length":0.0027955382155047917,"Shape_Area":3.0790321318031506e-7},"id":14},{"type":"Feature","geometry":{"type":"Polygon","coordinates":[[[39.909252,21.398575],[39.909031,21.398315],[39.908719,21.398144],[39.908344,21.397979],[39.907857,21.397885],[39.90741,21.397864],[39.907097,21.397911],[39.907075,21.39773],[39.907393,21.397687],[39.90787,21.397696],[39.908382,21.397817],[39.908808,21.39801],[39.90916,21.398206],[39.909382,21.398474],[39.909252,21.398575]]]},"properties":{"OBJECTID":15,"ASM_Code":"ASMMIN11","Masher":"MIN","ASM_Name":"مدخل طريق سوق العرب - الدائري الرابع","Capacity":"0","lat":21.398413311325328,"lon":39.90927287764123,"Shape_Length":0.005257714418123779,"Shape_Area":4.209742986962276e-7},"id":15},{"type":"Feature","geometry":{"type":"Polygon","coordinates":[[[39.910901,21.409102],[39.911021,21.408796],[39.911105,21.408829],[39.911045,21.408993],[39.91106,21.409092],[39.911097,21.409138],[39.911153,21.409208],[39.911233,21.409279],[39.911314,21.409325],[39.911424,21.409349],[39.911535,21.409349],[39.911647,21.40931],[39.911769,21.409228],[39.911823,21.409163],[39.911859,21.409081],[39.911872,21.408946],[39.911858,21.408866],[39.911975,21.408833],[39.912,21.408961],[39.911974,21.409117],[39.911924,21.409228],[39.911811,21.409354],[39.911597,21.409465],[39.911496,21.409477],[39.911393,21.409473],[39.911267,21.409441],[39.911156,21.40939],[39.911078,21.409335],[39.911022,21.409273],[39.910901,21.409102]]]},"properties":{"OBJECTID":16,"ASM_Code":"ASMMIN12","Masher":"MIN","ASM_Name":"مدخل الترددي  1","Capacity":"0","lat":21.408982179084376,"lon":39.91097501008869,"Shape_Length":0.0037103834056727357,"Shape_Area":2.1463857802520174e-7},"id":16},{"type":"Feature","geometry":{"type":"Polygon","coordinates":[[[39.91416,21.401597],[39.913699,21.401307],[39.913757,21.401221],[39.914234,21.401469],[39.914377,21.401501],[39.914569,21.401488],[39.914746,21.401424],[39.914859,21.40134],[39.914963,21.401224],[39.915006,21.401147],[39.915047,21.400989],[39.915055,21.400856],[39.915029,21.400725],[39.914967,21.400547],[39.915117,21.400472],[39.915163,21.400571],[39.915195,21.400711],[39.915224,21.401],[39.91518,21.401224],[39.915087,21.401368],[39.914951,21.401488],[39.91477,21.401606],[39.914715,21.401671],[39.914698,21.401746],[39.914714,21.401779],[39.914589,21.401823],[39.914573,21.401748],[39.914587,21.401647],[39.914377,21.401652],[39.91416,21.401597]]]},"properties":{"OBJECTID":17,"ASM_Code":"ASMMIN13","Masher":"MIN","ASM_Name":"مدخل الترددي  2","Capacity":"0","lat":21.401359060472316,"lon":39.91386488255836,"Shape_Length":0.005167044387665164,"Shape_Area":3.834517408702456e-7},"id":17},{"type":"Feature","geometry":{"type":"Polygon","coordinates":[[[39.857221,21.427339],[39.857114,21.427171],[39.857262,21.427088],[39.858574,21.426487],[39.859232,21.426149],[39.860222,21.425655],[39.860355,21.425645],[39.860924,21.425365],[39.860956,21.425446],[39.86028,21.425785],[39.859283,21.426272],[39.857632,21.427087],[39.857363,21.42726],[39.857221,21.427339]]]},"properties":{"OBJECTID":18,"ASM_Code":"ASMMIN2","Masher":"MIN","ASM_Name":"مدخل طريق الملك فيصل - الششة","Capacity":"0","lat":21.42719099986482,"lon":39.85722700012599,"Shape_Length":0.008702534007886138,"Shape_Area":5.585589172548024e-7},"id":18},{"type":"Feature","geometry":{"type":"Polygon","coordinates":[[[39.862471,21.426797],[39.862368,21.427177],[39.862122,21.427078],[39.862203,21.426748],[39.862251,21.426553],[39.86242,21.425944],[39.862731,21.426022],[39.862517,21.42661],[39.862471,21.426797]]]},"properties":{"OBJECTID":19,"ASM_Code":"ASMMIN3","Masher":"MIN","ASM_Name":"مدخل انفاق الجمرات الجوهرة - شارح الحج","Capacity":"0","lat":21.426246498577086,"lon":39.86275031777302,"Shape_Length":0.0029709979085529546,"Shape_Area":3.368810959516631e-7},"id":19},{"type":"Feature","geometry":{"type":"Polygon","coordinates":[[[39.8604,21.423064],[39.86046,21.422853],[39.860687,21.422913],[39.861815,21.423233],[39.86242,21.42332],[39.86276,21.423333],[39.863244,21.423313],[39.863756,21.423226],[39.864195,21.423116],[39.864242,21.423238],[39.863789,21.423356],[39.863266,21.423442],[39.86281,21.423475],[39.862406,21.423464],[39.862047,21.423426],[39.861782,21.423383],[39.860623,21.42312],[39.8604,21.423064]]]},"properties":{"OBJECTID":20,"ASM_Code":"ASMMIN5","Masher":"MIN","ASM_Name":"مدخل طريق الملك عبدالعزيز -  محبس الجن ","Capacity":"0","lat":21.42295926425868,"lon":39.86046065013892,"Shape_Length":0.008073303925288664,"Shape_Area":6.123802424484875e-7},"id":20},{"type":"Feature","geometry":{"type":"Polygon","coordinates":[[[39.898107,21.391961],[39.893458,21.389896],[39.893548,21.389691],[39.893866,21.389824],[39.894161,21.389988],[39.896286,21.390952],[39.898194,21.391809],[39.898723,21.392069],[39.89863,21.392218],[39.898107,21.391961]]]},"properties":{"OBJECTID":21,"ASM_Code":"ASMMIN6","Masher":"MIN","ASM_Name":"مدخل طريق الملك عبد العزيز - دقم الوبر","Capacity":"0","lat":21.38989562268489,"lon":39.89365090096834,"Shape_Length":0.011766477404407937,"Shape_Area":0.0000010758964505340456},"id":21},{"type":"Feature","geometry":{"type":"Polygon","coordinates":[[[39.876525,21.406858],[39.876304,21.406559],[39.876435,21.406453],[39.87668,21.406766],[39.87651,21.406432],[39.87659,21.406392],[39.876759,21.406718],[39.876879,21.406941],[39.877284,21.407552],[39.877471,21.407882],[39.877294,21.407991],[39.877012,21.407507],[39.876525,21.406858]]]},"properties":{"OBJECTID":22,"ASM_Code":"ASMMIN7","Masher":"MIN","ASM_Name":"مدخل طريق الملك خالد - العزيزية ","Capacity":"0","lat":21.401920333656506,"lon":39.87266503756149,"Shape_Length":0.0047140475861590075,"Shape_Area":4.021910898758267e-7},"id":22},{"type":"Feature","geometry":{"type":"Polygon","coordinates":[[[39.90049,21.438297],[39.900352,21.437912],[39.899816,21.436505],[39.899547,21.435495],[39.899483,21.435206],[39.899706,21.435151],[39.899842,21.435701],[39.899952,21.435967],[39.900088,21.436389],[39.900593,21.437826],[39.900737,21.438207],[39.90049,21.438297]]]},"properties":{"OBJECTID":23,"ASM_Code":"ASMMIN8","Masher":"MIN","ASM_Name":"مدخل طريق الملك خالد - المعيصم","Capacity":"0","lat":21.43807633815254,"lon":39.90055206452621,"Shape_Length":0.0069760786017889174,"Shape_Area":8.579239383130678e-7},"id":23},{"type":"Feature","geometry":{"type":"Polygon","coordinates":[[[39.886462,21.400897],[39.886278,21.400583],[39.886414,21.400531],[39.886476,21.400507],[39.886559,21.400474],[39.886755,21.401025],[39.887277,21.402001],[39.887096,21.402073],[39.886462,21.400897]]]},"properties":{"OBJECTID":24,"ASM_Code":"ASMMIN9","Masher":"MIN","ASM_Name":"مدخل طريق الملك عبدالله - العزيزية","Capacity":"0","lat":21.395218000310535,"lon":39.883504999656054,"Shape_Length":0.0038866143885855644,"Shape_Area":3.605455233689576e-7},"id":24},{"type":"Feature","geometry":{"type":"Polygon","coordinates":[[[39.862471,21.426797],[39.862368,21.427177],[39.862122,21.427078],[39.862203,21.426748],[39.862251,21.426553],[39.86242,21.425944],[39.862731,21.426022],[39.862517,21.42661],[39.862471,21.426797]]]},"properties":{"OBJECTID":25,"ASM_Code":"ASMMIN4","Masher":"MIN","ASM_Name":"مدخل انفاق الجمرات سوق العرب - شارح الحج","Capacity":"0","lat":21.426246498577086,"lon":39.86275031777302,"Shape_Length":0.0029709979085529546,"Shape_Area":3.368810959516631e-7},"id":25},{"type":"Feature","geometry":{"type":"Polygon","coordinates":[[[39.91416,21.401597],[39.913699,21.401307],[39.913757,21.401221],[39.914234,21.401469],[39.914377,21.401501],[39.914569,21.401488],[39.914746,21.401424],[39.914859,21.40134],[39.914963,21.401224],[39.915006,21.401147],[39.915047,21.400989],[39.915055,21.400856],[39.915029,21.400725],[39.914967,21.400547],[39.915117,21.400472],[39.915163,21.400571],[39.915195,21.400711],[39.915224,21.401],[39.91518,21.401224],[39.915087,21.401368],[39.914951,21.401488],[39.91477,21.401606],[39.914715,21.401671],[39.914698,21.401746],[39.914714,21.401779],[39.914589,21.401823],[39.914573,21.401748],[39.914587,21.401647],[39.914377,21.401652],[39.91416,21.401597]]]},"properties":{"OBJECTID":26,"ASM_Code":"ASMMIN14","Masher":"MIN","ASM_Name":"مدخل الترددي  3","Capacity":"0","lat":21.401359060472316,"lon":39.91386488255836,"Shape_Length":0.005167044387665164,"Shape_Area":3.834517408702456e-7},"id":26}]}